{
  "norad_id": 59223,
  "name": "STARLINK-31420",
  "history": [
    {
      "epoch": "2026-03-28T08:27:48.015648Z",
      "apogee_km": 476.19115066276026,
      "perigee_km": 474.25809148392,
      "latitude_deg": 4.11781614565985e-05,
      "longitude_deg": 116.15305283799262,
      "height_km": 476.02527330889234,
      "semi_major_axis_km": 6853.36162107334,
      "eccentricity": 0.00014103,
      "inclination_deg": 53.1606,
      "raan_deg": 68.8774,
      "arg_perigee_deg": 84.2224,
      "mean_anomaly_deg": 275.8938,
      "mean_motion_rev_day": 15.30196801
    },
    {
      "epoch": "2026-03-29T04:50:29.455584Z",
      "apogee_km": 476.128563036159,
      "perigee_km": 474.31379379051486,
      "latitude_deg": 5.6759383636501855e-05,
      "longitude_deg": 165.69939587355248,
      "height_km": 476.16176791210984,
      "semi_major_axis_km": 6853.358178413337,
      "eccentricity": 0.0001324,
      "inclination_deg": 53.1609,
      "raan_deg": 64.9333,
      "arg_perigee_deg": 92.6846,
      "mean_anomaly_deg": 267.4307,
      "mean_motion_rev_day": 15.30197954
    },
    {
      "epoch": "2026-03-30T04:21:17.476992Z",
      "apogee_km": 476.1449349737004,
      "perigee_km": 474.3068630441867,
      "latitude_deg": 4.891384001331848e-05,
      "longitude_deg": 167.4834429127578,
      "height_km": 476.11766878861823,
      "semi_major_axis_km": 6853.362899008944,
      "eccentricity": 0.0001341,
      "inclination_deg": 53.1609,
      "raan_deg": 60.3831,
      "arg_perigee_deg": 89.6075,
      "mean_anomaly_deg": 270.508,
      "mean_motion_rev_day": 15.30196373
    },
    {
      "epoch": "2026-03-30T07:29:23.837280Z",
      "apogee_km": 476.1218725904455,
      "perigee_km": 474.3332815031272,
      "latitude_deg": 2.8479078608405335e-07,
      "longitude_deg": 119.7218516490068,
      "height_km": 476.07383268969096,
      "semi_major_axis_km": 6853.364577046786,
      "eccentricity": 0.00013049,
      "inclination_deg": 53.161,
      "raan_deg": 59.7768,
      "arg_perigee_deg": 86.6742,
      "mean_anomaly_deg": 273.4408,
      "mean_motion_rev_day": 15.30195811
    },
    {
      "epoch": "2026-03-31T14:50:28.299840Z",
      "apogee_km": 476.1844234966038,
      "perigee_km": 474.31756060756834,
      "latitude_deg": -1.5109065490789383e-06,
      "longitude_deg": 2.097408315118495,
      "height_km": 476.24435969935496,
      "semi_major_axis_km": 6853.387992052086,
      "eccentricity": 0.0001362,
      "inclination_deg": 53.1615,
      "raan_deg": 53.7085,
      "arg_perigee_deg": 95.8571,
      "mean_anomaly_deg": 264.2585,
      "mean_motion_rev_day": 15.30187969
    },
    {
      "epoch": "2026-04-01T04:56:56.408352Z",
      "apogee_km": 476.05589243866234,
      "perigee_km": 474.4046421292833,
      "latitude_deg": -4.0970858092304246e-05,
      "longitude_deg": 147.16957382420452,
      "height_km": 476.18275581650437,
      "semi_major_axis_km": 6853.367267283973,
      "eccentricity": 0.00012047,
      "inclination_deg": 53.1619,
      "raan_deg": 50.9772,
      "arg_perigee_deg": 93.758,
      "mean_anomaly_deg": 266.3558,
      "mean_motion_rev_day": 15.3019491
    },
    {
      "epoch": "2026-04-02T13:52:05.427840Z",
      "apogee_km": 476.118478511411,
      "perigee_km": 474.440488019648,
      "latitude_deg": 1.3758586055999058e-05,
      "longitude_deg": 5.66019242100674,
      "height_km": 476.22357967712003,
      "semi_major_axis_km": 6853.416483265529,
      "eccentricity": 0.00012242,
      "inclination_deg": 53.1624,
      "raan_deg": 44.6073,
      "arg_perigee_deg": 93.1231,
      "mean_anomaly_deg": 266.991,
      "mean_motion_rev_day": 15.30178427
    },
    {
      "epoch": "2026-04-03T13:22:49.503360Z",
      "apogee_km": 475.83376155951646,
      "perigee_km": 474.4493992862717,
      "latitude_deg": 5.93986765501474e-05,
      "longitude_deg": 7.4588651575264455,
      "height_km": 476.17694168491204,
      "semi_major_axis_km": 6853.278580422894,
      "eccentricity": 0.000101,
      "inclination_deg": 53.1627,
      "raan_deg": 40.0552,
      "arg_perigee_deg": 101.3835,
      "mean_anomaly_deg": 258.728,
      "mean_motion_rev_day": 15.30224613
    },
    {
      "epoch": "2026-04-04T12:53:41.303904Z",
      "apogee_km": 476.34373254241837,
      "perigee_km": 474.30414256740187,
      "latitude_deg": -1.5771243994544914e-05,
      "longitude_deg": 9.229371370797097,
      "height_km": 476.4153132516921,
      "semi_major_axis_km": 6853.46093755491,
      "eccentricity": 0.0001488,
      "inclination_deg": 53.1617,
      "raan_deg": 35.5073,
      "arg_perigee_deg": 100.932,
      "mean_anomaly_deg": 259.1848,
      "mean_motion_rev_day": 15.30163539
    },
    {
      "epoch": "2026-04-05T12:24:27.821088Z",
      "apogee_km": 476.1710300926461,
      "perigee_km": 474.2304389797355,
      "latitude_deg": 7.093807404900603e-05,
      "longitude_deg": 11.019871631381706,
      "height_km": 476.2472484296334,
      "semi_major_axis_km": 6853.3377345361905,
      "eccentricity": 0.00014158,
      "inclination_deg": 53.1621,
      "raan_deg": 30.9572,
      "arg_perigee_deg": 98.7977,
      "mean_anomaly_deg": 261.3185,
      "mean_motion_rev_day": 15.30204801
    },
    {
      "epoch": "2026-04-05T20:14:43.769760Z",
      "apogee_km": 475.81381194881214,
      "perigee_km": 474.68985618002534,
      "latitude_deg": 2.953362128624823e-05,
      "longitude_deg": -108.38599810895754,
      "height_km": 476.5134259000631,
      "semi_major_axis_km": 6853.388834064419,
      "eccentricity": 8.2e-05,
      "inclination_deg": 53.1617,
      "raan_deg": 29.4397,
      "arg_perigee_deg": 130.1684,
      "mean_anomaly_deg": 229.9389,
      "mean_motion_rev_day": 15.30187687
    },
    {
      "epoch": "2026-04-06T02:30:56.340864Z",
      "apogee_km": 476.01704363182034,
      "perigee_km": 474.4801033831063,
      "latitude_deg": 1.9089742110349327e-05,
      "longitude_deg": 156.090907704955,
      "height_km": 476.4376793516063,
      "semi_major_axis_km": 6853.385573507463,
      "eccentricity": 0.00011213,
      "inclination_deg": 53.1615,
      "raan_deg": 28.2265,
      "arg_perigee_deg": 112.2168,
      "mean_anomaly_deg": 247.8952,
      "mean_motion_rev_day": 15.30188779
    },
    {
      "epoch": "2026-04-07T02:01:44.465952Z",
      "apogee_km": 476.08455084196066,
      "perigee_km": 474.39190422826323,
      "latitude_deg": 4.8029956172408006e-06,
      "longitude_deg": 157.87431367839704,
      "height_km": 476.31960137251014,
      "semi_major_axis_km": 6853.375227535112,
      "eccentricity": 0.00012349,
      "inclination_deg": 53.1613,
      "raan_deg": 23.6761,
      "arg_perigee_deg": 102.4931,
      "mean_anomaly_deg": 257.6208,
      "mean_motion_rev_day": 15.30192244
    }
  ]
}